[{"OBJECT_NAME":"PHISAT 2","OBJECT_ID":"2024-149C","EPOCH":"2026-03-09T18:55:12.732384","MEAN_MOTION":15.29548632,"ECCENTRICITY":0.00011753,"INCLINATION":97.3806,"RA_OF_ASC_NODE":148.6498,"ARG_OF_PERICENTER":168.623,"MEAN_ANOMALY":191.5037,"EPHEMERIS_TYPE":0,"CLASSIFICATION_TYPE":"U","NORAD_CAT_ID":60470,"ELEMENT_SET_NO":999,"REV_AT_EPOCH":8679,"BSTAR":0.00031420974,"MEAN_MOTION_DOT":8.925e-5,"MEAN_MOTION_DDOT":0},{"OBJECT_NAME":"STARLINK-32457","OBJECT_ID":"2024-196L","EPOCH":"2026-03-09T12:38:03.444864","MEAN_MOTION":15.30190961,"ECCENTRICITY":0.00010728,"INCLINATION":53.1601,"RA_OF_ASC_NODE":101.9495,"ARG_OF_PERICENTER":115.0692,"MEAN_ANOMALY":245.042,"EPHEMERIS_TYPE":0,"CLASSIFICATION_TYPE":"U","NORAD_CAT_ID":61717,"ELEMENT_SET_NO":999,"REV_AT_EPOCH":7713,"BSTAR":-1.1542636e-5,"MEAN_MOTION_DOT":-7.01e-6,"MEAN_MOTION_DDOT":0}]
